LEMUR-2-LEIA-PHILIP     
1 63246U 25052AN  26195.93616703  .00000193  00000+0  21592-4 0  9998
2 63246  97.6807  87.4167 0005095 119.8953 240.2776 14.97391318 72821
LEMUR-2-LIA-MARTIN      
1 63248U 25052AQ  26195.66364884  .00002328  00000+0  20188-3 0  9991
2 63248  97.6872  87.6667 0005323  90.9786 269.2046 14.98028183 72794
LEMUR-2-DELOITTE-1      
1 63259U 25052BB  26195.71082234  .00002301  00000+0  20091-3 0  9999
2 63259  97.6883  88.0432 0002518  65.5958 294.5527 14.97779672 72818
LEMUR-2-EMERSONROSE     
1 63261U 25052BD  26195.65875119  .00002780  00000+0  23258-3 0  9996
2 63261  97.6885  88.6039 0002746  61.6486 298.5014 14.99288120 72852
LEMUR-2-MARACHE-FRAN    
1 63262U 25052BE  26195.68182610  .00001807  00000+0  14883-3 0  9990
2 63262  97.6840  88.9942 0005132 254.1706 105.8952 15.00313702 72888
LEMUR-2-THEFALCONER     
1 63264U 25052BG  26195.67438993  .00001016  00000+0  91950-4 0  9992
2 63264  97.6834  87.5989 0000305 310.2900  49.8296 14.97562332 72806
LEMUR-2-UNTITLED-SC     
1 63351U 25061A   26195.92149000  .00001611  00000+0  92972-4 0  9991
2 63351  97.5652 171.0866 0019211 163.9754 196.2089 15.13645430 71782
LEMUR-2-ESPERANZA       
1 63352U 25061B   26195.89684498  .00001799  00000+0  10314-3 0  9999
2 63352  97.5659 171.1621 0018824 163.2431 196.9426 15.13751282 71789
LEMUR-2-KREMPEL-BRO2    
1 63353U 25061C   26195.91589982  .00001601  00000+0  91080-4 0  9997
2 63353  97.5705 171.7497 0019946 156.1877 204.0282 15.14177711 71804
LEMUR-2-THERMORAPTOR    
1 63354U 25061D   26195.89647369  .00001990  00000+0  11201-3 0  9996
2 63354  97.5710 171.8114 0019704 155.0940 205.1247 15.14260636 71801
LEMUR-2-NEUROSPICY      
1 63355U 25061E   26195.86601068  .00002019  00000+0  11332-3 0  9998
2 63355  97.5638 171.3860 0017457 158.0548 202.1435 15.14379540 71805
LEMUR-2-TILLINFINITY    
1 63356U 25061F   26195.89060975  .00002120  00000+0  11684-3 0  9991
2 63356  97.5623 171.7204 0019036 146.8297 213.4133 15.14963133 71837
LEMUR-2-KREMPEL-BRO1    
1 63357U 25061G   26195.86762064  .00002037  00000+0  11295-3 0  9992
2 63357  97.5623 171.6057 0019663 148.3273 211.9146 15.14770588 71826
LEMUR-2-LANGER2SPACE    
1 63358U 25061H   26195.89968102  .00001870  00000+0  10500-3 0  9999
2 63358  97.5630 171.4405 0017397 156.1893 204.0148 15.14463886 71811
LEMUR-2-BALTO           
1 63395U 25052BH  26195.66620590  .00002634  00000+0  21456-3 0  9992
2 63395  97.6930  88.9659 0005147 329.8466  30.2460 15.00361361 72888
LEMUR-2-KRISH           
1 64561U 25135AK  26195.29112395  .00001935  00000+0  17576-3 0  9999
2 64561  97.7772 309.9867 0001390  95.6584 264.4796 14.96445154 57974
